O3B MPOWER F1           
1 54755U 22174A   24199.35453479 -.00000013  00000+0  00000+0 0  9990
2 54755   0.0598 350.3514 0006816 122.8937 299.5471  5.00114091 30342
